[{"OBJECT_NAME":"HELIOS 1B","OBJECT_ID":"1999-064A","EPOCH":"2026-04-11T16:03:41.464224","MEAN_MOTION":14.87830777,"ECCENTRICITY":0.00010689,"INCLINATION":98.1661,"RA_OF_ASC_NODE":4.8774,"ARG_OF_PERICENTER":37.8758,"MEAN_ANOMALY":322.2532,"EPHEMERIS_TYPE":0,"CLASSIFICATION_TYPE":"U","NORAD_CAT_ID":25977,"ELEMENT_SET_NO":999,"REV_AT_EPOCH":69016,"BSTAR":0.00014333411,"MEAN_MOTION_DOT":1.251e-5,"MEAN_MOTION_DDOT":0},{"OBJECT_NAME":"TERRA","OBJECT_ID":"1999-068A","EPOCH":"2026-04-12T06:34:21.624096","MEAN_MOTION":14.6105134,"ECCENTRICITY":0.00036386,"INCLINATION":97.9525,"RA_OF_ASC_NODE":154.4136,"ARG_OF_PERICENTER":83.6412,"MEAN_ANOMALY":340.9201,"EPHEMERIS_TYPE":0,"CLASSIFICATION_TYPE":"U","NORAD_CAT_ID":25994,"ELEMENT_SET_NO":999,"REV_AT_EPOCH":39998,"BSTAR":6.4398558e-5,"MEAN_MOTION_DOT":2.72e-6,"MEAN_MOTION_DDOT":0},{"OBJECT_NAME":"SL-16 R/B","OBJECT_ID":"2000-006B","EPOCH":"2026-04-12T05:14:43.447488","MEAN_MOTION":14.15830303,"ECCENTRICITY":0.0014825,"INCLINATION":71.0047,"RA_OF_ASC_NODE":27.3351,"ARG_OF_PERICENTER":136.6458,"MEAN_ANOMALY":223.5834,"EPHEMERIS_TYPE":0,"CLASSIFICATION_TYPE":"U","NORAD_CAT_ID":26070,"ELEMENT_SET_NO":999,"REV_AT_EPOCH":35330,"BSTAR":-0.00010191587,"MEAN_MOTION_DOT":-2.48e-6,"MEAN_MOTION_DDOT":0},{"OBJECT_NAME":"TITAN 4B R/B","OBJECT_ID":"2000-047B","EPOCH":"2026-04-12T03:40:48.763488","MEAN_MOTION":15.09855528,"ECCENTRICITY":0.0041157,"INCLINATION":67.9888,"RA_OF_ASC_NODE":306.392,"ARG_OF_PERICENTER":356.7174,"MEAN_ANOMALY":3.3699,"EPHEMERIS_TYPE":0,"CLASSIFICATION_TYPE":"U","NORAD_CAT_ID":26474,"ELEMENT_SET_NO":999,"REV_AT_EPOCH":39796,"BSTAR":0.00012316994,"MEAN_MOTION_DOT":1.897e-5,"MEAN_MOTION_DDOT":0},{"OBJECT_NAME":"ENVISAT","OBJECT_ID":"2002-009A","EPOCH":"2026-04-12T06:50:51.190944","MEAN_MOTION":14.39048951,"ECCENTRICITY":0.00011601,"INCLINATION":98.3781,"RA_OF_ASC_NODE":55.0946,"ARG_OF_PERICENTER":83.5113,"MEAN_ANOMALY":82.9625,"EPHEMERIS_TYPE":0,"CLASSIFICATION_TYPE":"U","NORAD_CAT_ID":27386,"ELEMENT_SET_NO":999,"REV_AT_EPOCH":26400,"BSTAR":3.5206349e-5,"MEAN_MOTION_DOT":6.6e-7,"MEAN_MOTION_DDOT":0},{"OBJECT_NAME":"IDEFIX & ARIANE 42P R/B","OBJECT_ID":"2002-021B","EPOCH":"2026-04-12T06:24:21.468960","MEAN_MOTION":14.31049768,"ECCENTRICITY":0.00129874,"INCLINATION":98.5905,"RA_OF_ASC_NODE":40.48,"ARG_OF_PERICENTER":88.4448,"MEAN_ANOMALY":271.8222,"EPHEMERIS_TYPE":0,"CLASSIFICATION_TYPE":"U","NORAD_CAT_ID":27422,"ELEMENT_SET_NO":999,"REV_AT_EPOCH":24882,"BSTAR":8.465616e-5,"MEAN_MOTION_DOT":1.79e-6,"MEAN_MOTION_DDOT":0},{"OBJECT_NAME":"AQUA","OBJECT_ID":"2002-022A","EPOCH":"2026-04-12T07:07:21.411840","MEAN_MOTION":14.62055678,"ECCENTRICITY":0.00016981,"INCLINATION":98.4227,"RA_OF_ASC_NODE":70.2887,"ARG_OF_PERICENTER":110.0379,"MEAN_ANOMALY":356.445,"EPHEMERIS_TYPE":0,"CLASSIFICATION_TYPE":"U","NORAD_CAT_ID":27424,"ELEMENT_SET_NO":999,"REV_AT_EPOCH":27364,"BSTAR":0.0001400948,"MEAN_MOTION_DOT":6.54e-6,"MEAN_MOTION_DDOT":0},{"OBJECT_NAME":"CZ-4B R/B","OBJECT_ID":"2002-024C","EPOCH":"2026-04-12T00:49:44.377824","MEAN_MOTION":14.14553759,"ECCENTRICITY":0.00490779,"INCLINATION":98.877,"RA_OF_ASC_NODE":155.2622,"ARG_OF_PERICENTER":288.6579,"MEAN_ANOMALY":133.3986,"EPHEMERIS_TYPE":0,"CLASSIFICATION_TYPE":"U","NORAD_CAT_ID":27432,"ELEMENT_SET_NO":999,"REV_AT_EPOCH":23395,"BSTAR":2.4243349e-5,"MEAN_MOTION_DOT":2.0e-8,"MEAN_MOTION_DDOT":0},{"OBJECT_NAME":"MIDORI II (ADEOS-II)","OBJECT_ID":"2002-056A","EPOCH":"2026-04-12T03:00:56.973888","MEAN_MOTION":14.29311646,"ECCENTRICITY":1.076e-5,"INCLINATION":98.7823,"RA_OF_ASC_NODE":60.8469,"ARG_OF_PERICENTER":107.6382,"MEAN_ANOMALY":252.4811,"EPHEMERIS_TYPE":0,"CLASSIFICATION_TYPE":"U","NORAD_CAT_ID":27597,"ELEMENT_SET_NO":999,"REV_AT_EPOCH":21507,"BSTAR":0.00010777308,"MEAN_MOTION_DOT":2.29e-6,"MEAN_MOTION_DDOT":0},{"OBJECT_NAME":"H-2A R/B","OBJECT_ID":"2002-056E","EPOCH":"2026-04-11T20:21:29.683872","MEAN_MOTION":14.33785445,"ECCENTRICITY":0.00713436,"INCLINATION":98.3256,"RA_OF_ASC_NODE":60.9634,"ARG_OF_PERICENTER":63.2495,"MEAN_ANOMALY":318.7296,"EPHEMERIS_TYPE":0,"CLASSIFICATION_TYPE":"U","NORAD_CAT_ID":27601,"ELEMENT_SET_NO":999,"REV_AT_EPOCH":21886,"BSTAR":0.00010533002,"MEAN_MOTION_DOT":2.6e-6,"MEAN_MOTION_DDOT":0},{"OBJECT_NAME":"CZ-4B R/B","OBJECT_ID":"2003-049C","EPOCH":"2026-04-11T22:36:22.810752","MEAN_MOTION":14.550509,"ECCENTRICITY":0.0049037,"INCLINATION":98.6898,"RA_OF_ASC_NODE":98.1583,"ARG_OF_PERICENTER":129.3765,"MEAN_ANOMALY":231.179,"EPHEMERIS_TYPE":0,"CLASSIFICATION_TYPE":"U","NORAD_CAT_ID":28059,"ELEMENT_SET_NO":999,"REV_AT_EPOCH":19143,"BSTAR":7.244e-5,"MEAN_MOTION_DOT":2.66e-6,"MEAN_MOTION_DDOT":0},{"OBJECT_NAME":"CZ-2C R/B","OBJECT_ID":"2004-012C","EPOCH":"2026-04-12T03:25:59.603808","MEAN_MOTION":15.68844364,"ECCENTRICITY":0.00139801,"INCLINATION":97.7153,"RA_OF_ASC_NODE":170.7013,"ARG_OF_PERICENTER":182.1377,"MEAN_ANOMALY":177.9826,"EPHEMERIS_TYPE":0,"CLASSIFICATION_TYPE":"U","NORAD_CAT_ID":28222,"ELEMENT_SET_NO":999,"REV_AT_EPOCH":20951,"BSTAR":0.0004675548,"MEAN_MOTION_DOT":0.00053913,"MEAN_MOTION_DDOT":0},{"OBJECT_NAME":"SL-16 R/B","OBJECT_ID":"2004-021B","EPOCH":"2026-04-12T02:47:19.521888","MEAN_MOTION":14.14604862,"ECCENTRICITY":0.00060583,"INCLINATION":71.0009,"RA_OF_ASC_NODE":162.3477,"ARG_OF_PERICENTER":326.6453,"MEAN_ANOMALY":33.4286,"EPHEMERIS_TYPE":0,"CLASSIFICATION_TYPE":"U","NORAD_CAT_ID":28353,"ELEMENT_SET_NO":999,"REV_AT_EPOCH":12756,"BSTAR":9.0441013e-5,"MEAN_MOTION_DOT":1.26e-6,"MEAN_MOTION_DDOT":0},{"OBJECT_NAME":"CZ-4B R/B","OBJECT_ID":"2004-035C","EPOCH":"2026-04-12T01:57:34.546176","MEAN_MOTION":15.29664211,"ECCENTRICITY":0.00309474,"INCLINATION":97.345,"RA_OF_ASC_NODE":135.9276,"ARG_OF_PERICENTER":207.0629,"MEAN_ANOMALY":152.8999,"EPHEMERIS_TYPE":0,"CLASSIFICATION_TYPE":"U","NORAD_CAT_ID":28415,"ELEMENT_SET_NO":999,"REV_AT_EPOCH":18501,"BSTAR":0.00020570786,"MEAN_MOTION_DOT":5.92e-5,"MEAN_MOTION_DDOT":0},{"OBJECT_NAME":"CZ-2C R/B","OBJECT_ID":"2004-046B","EPOCH":"2026-04-12T03:24:38.324736","MEAN_MOTION":14.27005953,"ECCENTRICITY":0.01404841,"INCLINATION":98.1973,"RA_OF_ASC_NODE":15.0412,"ARG_OF_PERICENTER":56.2395,"MEAN_ANOMALY":305.2079,"EPHEMERIS_TYPE":0,"CLASSIFICATION_TYPE":"U","NORAD_CAT_ID":28480,"ELEMENT_SET_NO":999,"REV_AT_EPOCH":11327,"BSTAR":5.7298343e-5,"MEAN_MOTION_DOT":1.14e-6,"MEAN_MOTION_DDOT":0},{"OBJECT_NAME":"ARIANE 5 R/B","OBJECT_ID":"2004-049H","EPOCH":"2026-04-11T21:53:18.400128","MEAN_MOTION":14.85332844,"ECCENTRICITY":0.0082936,"INCLINATION":98.2676,"RA_OF_ASC_NODE":271.6243,"ARG_OF_PERICENTER":243.0121,"MEAN_ANOMALY":116.2607,"EPHEMERIS_TYPE":0,"CLASSIFICATION_TYPE":"U","NORAD_CAT_ID":28499,"ELEMENT_SET_NO":999,"REV_AT_EPOCH":15072,"BSTAR":8.6737e-5,"MEAN_MOTION_DOT":7.27e-6,"MEAN_MOTION_DDOT":0},{"OBJECT_NAME":"CZ-2D R/B","OBJECT_ID":"2005-024B","EPOCH":"2026-04-12T06:48:54.810144","MEAN_MOTION":15.63401616,"ECCENTRICITY":0.00026006,"INCLINATION":97.3565,"RA_OF_ASC_NODE":118.7383,"ARG_OF_PERICENTER":219.8415,"MEAN_ANOMALY":140.2653,"EPHEMERIS_TYPE":0,"CLASSIFICATION_TYPE":"U","NORAD_CAT_ID":28738,"ELEMENT_SET_NO":999,"REV_AT_EPOCH":14502,"BSTAR":0.00035425585,"MEAN_MOTION_DOT":0.00032581,"MEAN_MOTION_DDOT":0}]
