HELIOS 1B               
1 25977U 99064A   26101.66922991  .00001251  00000+0  14333-3 0  9997
2 25977  98.1661   4.8774 0001068  37.8758 322.2532 14.87830777690169
TERRA                   
1 25994U 99068A   26102.27386139  .00000272  00000+0  64399-4 0  9996
2 25994  97.9525 154.4136 0003638  83.6412 340.9201 14.61051340399988
SL-16 R/B               
1 26070U 00006B   26102.21855842 -.00000248  00000+0 -10192-3 0  9998
2 26070  71.0047  27.3351 0014825 136.6458 223.5834 14.15830303353309
TITAN 4B R/B            
1 26474U 00047B   26102.15334217  .00001897  00000+0  12317-3 0  9992
2 26474  67.9888 306.3920 0041157 356.7174   3.3699 15.09855528397967
ENVISAT                 
1 27386U 02009A   26102.28531471  .00000066  00000+0  35206-4 0  9990
2 27386  98.3781  55.0946 0001160  83.5113  82.9625 14.39048951264000
IDEFIX & ARIANE 42P R/B 
1 27422U 02021B   26102.26691515  .00000179  00000+0  84656-4 0  9997
2 27422  98.5905  40.4800 0012987  88.4448 271.8222 14.31049768248825
AQUA                    
1 27424U 02022A   26102.29677560  .00000654  00000+0  14009-3 0  9999
2 27424  98.4227  70.2887 0001698 110.0379 356.4450 14.62055678273643
CZ-4B R/B               
1 27432U 02024C   26102.03454141  .00000002  00000+0  24243-4 0  9999
2 27432  98.8770 155.2622 0049077 288.6579 133.3986 14.14553759233953
MIDORI II (ADEOS-II)    
1 27597U 02056A   26102.12565942  .00000229  00000+0  10777-3 0  9995
2 27597  98.7823  60.8469 0000107 107.6382 252.4811 14.29311646215072
H-2A R/B                
1 27601U 02056E   26101.84826023  .00000260  00000+0  10533-3 0  9994
2 27601  98.3256  60.9634 0071343  63.2495 318.7296 14.33785445218861
CZ-4B R/B               
1 28059U 03049C   26101.94193068  .00000266  00000+0  72440-4 0  9994
2 28059  98.6898  98.1583 0049037 129.3765 231.1790 14.55050900191434
CZ-2C R/B               
1 28222U 04012C   26102.14305097  .00053913  00000+0  46755-3 0  9993
2 28222  97.7153 170.7013 0013980 182.1377 177.9826 15.68844364209515
SL-16 R/B               
1 28353U 04021B   26102.11619817  .00000126  00000+0  90441-4 0  9993
2 28353  71.0009 162.3477 0006058 326.6453  33.4286 14.14604862127561
CZ-4B R/B               
1 28415U 04035C   26102.08164984  .00005920  00000+0  20571-3 0  9996
2 28415  97.3450 135.9276 0030947 207.0629 152.8999 15.29664211185017
CZ-2C R/B               
1 28480U 04046B   26102.14211024  .00000114  00000+0  57298-4 0  9992
2 28480  98.1973  15.0412 0140484  56.2395 305.2079 14.27005953113271
ARIANE 5 R/B            
1 28499U 04049H   26101.91201852  .00000727  00000+0  86737-4 0  9997
2 28499  98.2676 271.6243 0082936 243.0121 116.2607 14.85332844150728
CZ-2D R/B               
1 28738U 05024B   26102.28396771  .00032581  00000+0  35426-3 0  9994
2 28738  97.3565 118.7383 0002600 219.8415 140.2653 15.63401616145020
